[{"OBJECT_NAME":"CUTE-1.7+APD II (CO-65)","OBJECT_ID":"2008-021C","EPOCH":"2026-03-09T21:54:04.726080","MEAN_MOTION":15.08376872,"ECCENTRICITY":0.00096053,"INCLINATION":97.8207,"RA_OF_ASC_NODE":48.3884,"ARG_OF_PERICENTER":18.7003,"MEAN_ANOMALY":341.4575,"EPHEMERIS_TYPE":0,"CLASSIFICATION_TYPE":"U","NORAD_CAT_ID":32785,"ELEMENT_SET_NO":999,"REV_AT_EPOCH":97022,"BSTAR":0.00047295391,"MEAN_MOTION_DOT":7.295e-5,"MEAN_MOTION_DDOT":0},{"OBJECT_NAME":"STARLINK-4591","OBJECT_ID":"2022-104V","EPOCH":"2026-03-09T18:02:08.977920","MEAN_MOTION":15.08841572,"ECCENTRICITY":0.00014094,"INCLINATION":53.2164,"RA_OF_ASC_NODE":238.8956,"ARG_OF_PERICENTER":93.6563,"MEAN_ANOMALY":266.459,"EPHEMERIS_TYPE":0,"CLASSIFICATION_TYPE":"U","NORAD_CAT_ID":53607,"ELEMENT_SET_NO":999,"REV_AT_EPOCH":19569,"BSTAR":-1.512017e-5,"MEAN_MOTION_DOT":-5.29e-6,"MEAN_MOTION_DDOT":0}]
